APRIZESAT 2             
1 28366U 04025A   26156.03863809  .00000163  00000+0  64165-4 0  9998
2 28366  98.1006 322.7075 0104313 286.9718  72.0058 14.38031187149899
SAUDICOMSAT 1           
1 28369U 04025D   26155.98562932  .00000485  00000+0  12214-3 0  9991
2 28369  98.5772 165.7879 0033261  62.0204 298.4352 14.55463772162354
SAUDICOMSAT 2           
1 28370U 04025E   26155.97996045  .00000333  00000+0  97282-4 0  9999
2 28370  98.6642 167.8805 0054242 297.2711  62.2964 14.49974015158331
APRIZESAT 1             
1 28372U 04025G   26155.61311203  .00000255  00000+0  74721-4 0  9995
2 28372  98.6304 165.9962 0044334 191.8699 168.1454 14.51770809160089
NANOSAT-1               
1 28493U 04049B   26156.20361181  .00001149  00000+0  15865-3 0  9997
2 28493  98.2262 292.5729 0003503 350.5832   9.5313 14.80134930153676
SAUDICOMSAT 7           
1 31119U 07012C   26155.96447890  .00000605  00000+0  11743-3 0  9990
2 31119  98.3772 129.8464 0054585 234.0427 125.5706 14.66098185 20642
SAUDICOMSAT 6           
1 31121U 07012E   26155.98107580  .00000839  00000+0  16956-3 0  9994
2 31121  98.4090 123.2709 0071947   5.9200 354.2834 14.62542454 18407
SAUDICOMSAT 5           
1 31124U 07012H   26156.15940389  .00000672  00000+0  12404-3 0  9998
2 31124  98.3484 130.7953 0047749 161.9328 198.3587 14.68142232 21836
SAUDICOMSAT 3           
1 31125U 07012J   26154.43994603  .00000985  00000+0  16842-3 0  9993
2 31125  98.3138 129.5910 0040504  95.2690 265.3139 14.70681681 22800
SAUDICOMSAT 4           
1 31127U 07012L   26154.76337527  .00000697  00000+0  13788-3 0  9993
2 31127  98.3976 127.0607 0062263 301.0451  58.4648 14.64497432 19328
APRIZESAT 4             
1 35684U 09041D   26155.71471125  .00000905  00000+0  11430-3 0  9992
2 35684  98.1412 230.7866 0043322   3.9288 356.2256 14.83862321909510
APRIZESAT 3             
1 35686U 09041F   26155.99443439  .00001619  00000+0  14379-3 0  9999
2 35686  98.2059 308.6358 0062955 106.9309 253.8824 14.96207329914550
S-NET D                 
1 43186U 18014G   26155.72810237  .00005903  00000+0  30569-3 0  9997
2 43186  97.5370  60.5972 0009887  67.4587 292.7691 15.16550561456874
S-NET B                 
1 43187U 18014H   26155.67333098  .00006432  00000+0  33300-3 0  9991
2 43187  97.5376  60.5288 0010426  63.4642 296.7659 15.16520086456866
S-NET A                 
1 43188U 18014J   26155.72704580  .00005834  00000+0  30204-3 0  9991
2 43188  97.5386  60.7888 0010387  63.5981 296.6317 15.16558138456879
S-NET C                 
1 43189U 18014K   26155.67714318  .00006393  00000+0  33099-3 0  9992
2 43189  97.5402  60.8120 0011555  56.9894 303.2448 15.16511330455418
SALSAT                  
1 46495U 20068K   26155.97862976  .00008911  00000+0  31300-3 0  9995
2 46495  97.8851 158.3021 0009245 356.4519   3.6652 15.29615280313492
OOV-CUBE (TUBSAT-30)    
1 60240U 24128F   26156.01171044  .00003200  00000+0  24869-3 0  9993
2 60240  61.9954 268.0264 0046140 131.0618 229.4474 15.02717688104283
LPNTSAT-001 (IOD-1)     
1 68408U 26065A   26155.88597873  .00003643  00000+0  17934-3 0  9991
2 68408  97.4030  36.6556 0017839  51.4443 308.8387 15.18469851 10399
